{"type": "FeatureCollection", "features": [ {"type": "Feature", "properties": {"norad_id": 29853, "name": "FENGYUN 1C DEB", "group": "fengyun-1c-debris", "lat": -66.81998206777351, "lon": -88.5842289076791, "alt_km": 826.538457071756, "timestamp": "2025-12-16T10:53:45.741157+00:00", "meta": {"OBJECT_NAME": "FENGYUN 1C DEB", "OBJECT_ID": "1999-025EX", "EPOCH": "2025-12-15T07:51:55.793376", "MEAN_MOTION": 13.93806114, "ECCENTRICITY": 0.01616411, "INCLINATION": 98.4571, "RA_OF_ASC_NODE": 110.7166, "ARG_OF_PERICENTER": 215.3773, "MEAN_ANOMALY": 143.6581, "EPHEMERIS_TYPE": 0, "CLASSIFICATION_TYPE": "U", "NORAD_CAT_ID": 29853, "ELEMENT_SET_NO": 999, "REV_AT_EPOCH": 95705, "BSTAR": 0.0013009328, "MEAN_MOTION_DOT": 1.871e-05, "MEAN_MOTION_DDOT": 0}, "tle": {"line1": "1 29853U 99025EX  25349.32772909  .00001871  00000+0  13009-2 0  9995", "line2": "2 29853  98.4571 110.7166 0161641 215.3773 143.6581 13.93806114957052"}}, "geometry": {"type": "Point", "coordinates": [-88.5842289076791, -66.81998206777351]}}, {"type": "Feature", "properties": {"norad_id": 29854, "name": "FENGYUN 1C DEB", "group": "fengyun-1c-debris", "lat": -2.191226217850675, "lon": 151.7462650115199, "alt_km": 875.4305051663678, "timestamp": "2025-12-16T10:53:45.741168+00:00", "meta": {"OBJECT_NAME": "FENGYUN 1C DEB", "OBJECT_ID": "1999-025EY", "EPOCH": "2025-12-15T23:19:52.959072", "MEAN_MOTION": 13.83343684, "ECCENTRICITY": 0.01472378, "INCLINATION": 98.9273, "RA_OF_ASC_NODE": 150.9443, "ARG_OF_PERICENTER": 42.1329, "MEAN_ANOMALY": 78.5181, "EPHEMERIS_TYPE": 0, "CLASSIFICATION_TYPE": "U", "NORAD_CAT_ID": 29854, "ELEMENT_SET_NO": 999, "REV_AT_EPOCH": 95388, "BSTAR": 0.00027185109, "MEAN_MOTION_DOT": 2.84e-06, "MEAN_MOTION_DDOT": 0}, "tle": {"line1": "1 29854U 99025EY  25349.97214073  .00000284  00000+0  27185-3 0  9998", "line2": "2 29854  98.9273 150.9443 0147237  42.1329  78.5181 13.83343684953885"}}, "geometry": {"type": "Point", "coordinates": [151.7462650115199, -2.191226217850675]}}, {"type": "Feature", "properties": {"norad_id": 29855, "name": "FENGYUN 1C DEB", "group": "fengyun-1c-debris", "lat": 46.70797575674751, "lon": -77.00697451322061, "alt_km": 753.0043523979793, "timestamp": "2025-12-16T10:53:45.741178+00:00", "meta": {"OBJECT_NAME": "FENGYUN 1C DEB", "OBJECT_ID": "1999-025EZ", "EPOCH": "2025-12-15T19:30:28.486080", "MEAN_MOTION": 14.01606395, "ECCENTRICITY": 0.01840284, "INCLINATION": 98.1805, "RA_OF_ASC_NODE": 291.2002, "ARG_OF_PERICENTER": 37.5586, "MEAN_ANOMALY": 16.0332, "EPHEMERIS_TYPE": 0, "CLASSIFICATION_TYPE": "U", "NORAD_CAT_ID": 29855, "ELEMENT_SET_NO": 999, "REV_AT_EPOCH": 95755, "BSTAR": 0.0017086237, "MEAN_MOTION_DOT": 2.964e-05, "MEAN_MOTION_DDOT": 0}, "tle": {"line1": "1 29855U 99025EZ  25349.81282970  .00002964  00000+0  17086-2 0  9998", "line2": "2 29855  98.1805 291.2002 0184028  37.5586  16.0332 14.01606395957556"}}, "geometry": {"type": "Point", "coordinates": [-77.00697451322061, 46.70797575674751]}}, {"type": "Feature", "properties": {"norad_id": 29856, "name": "FENGYUN 1C DEB", "group": "fengyun-1c-debris", "lat": -23.03804456391919, "lon": -99.20777344552253, "alt_km": 711.9412455322417, "timestamp": "2025-12-16T10:53:45.741188+00:00", "meta": {"OBJECT_NAME": "FENGYUN 1C DEB", "OBJECT_ID": "1999-025FA", "EPOCH": "2025-12-15T19:35:53.815776", "MEAN_MOTION": 14.47830879, "ECCENTRICITY": 0.02623345, "INCLINATION": 98.6889, "RA_OF_ASC_NODE": 83.8653, "ARG_OF_PERICENTER": 288.5572, "MEAN_ANOMALY": 197.2561, "EPHEMERIS_TYPE": 0, "CLASSIFICATION_TYPE": "U", "NORAD_CAT_ID": 29856, "ELEMENT_SET_NO": 999, "REV_AT_EPOCH": 96419, "BSTAR": 0.0015863278, "MEAN_MOTION_DOT": 9.022e-05, "MEAN_MOTION_DDOT": 0}, "tle": {"line1": "1 29856U 99025FA  25349.81659509  .00009022  00000+0  15863-2 0  9998", "line2": "2 29856  98.6889  83.8653 0262334 288.5572 197.2561 14.47830879964191"}}, "geometry": {"type": "Point", "coordinates": [-99.20777344552253, -23.03804456391919]}}, {"type": "Feature", "properties": {"norad_id": 29857, "name": "FENGYUN 1C DEB", "group": "fengyun-1c-debris", "lat": -26.174452091627273, "lon": 173.216486222396, "alt_km": 930.5048827031987, "timestamp": "2025-12-16T10:53:45.741199+00:00", "meta": {"OBJECT_NAME": "FENGYUN 1C DEB", "OBJECT_ID": "1999-025FB", "EPOCH": "2025-12-15T11:17:23.188128", "MEAN_MOTION": 13.81891169, "ECCENTRICITY": 0.01927746, "INCLINATION": 98.4227, "RA_OF_ASC_NODE": 356.5133, "ARG_OF_PERICENTER": 286.9484, "MEAN_ANOMALY": 71.0622, "EPHEMERIS_TYPE": 0, "CLASSIFICATION_TYPE": "U", "NORAD_CAT_ID": 29857, "ELEMENT_SET_NO": 999, "REV_AT_EPOCH": 94813, "BSTAR": 0.0014514054, "MEAN_MOTION_DOT": 1.754e-05, "MEAN_MOTION_DDOT": 0}, "tle": {"line1": "1 29857U 99025FB  25349.47040727  .00001754  00000+0  14514-2 0  9993", "line2": "2 29857  98.4227 356.5133 0192774 286.9484  71.0622 13.81891169948132"}}, "geometry": {"type": "Point", "coordinates": [173.216486222396, -26.174452091627273]}}, {"type": "Feature", "properties": {"norad_id": 29858, "name": "FENGYUN 1C DEB", "group": "fengyun-1c-debris", "lat": 54.866461375690264, "lon": 78.63899433499112, "alt_km": 820.8002185340529, "timestamp": "2025-12-16T10:53:45.741209+00:00", "meta": {"OBJECT_NAME": "FENGYUN 1C DEB", "OBJECT_ID": "1999-025FC", "EPOCH": "2025-12-15T13:47:46.441248", "MEAN_MOTION": 13.77794218, "ECCENTRICITY": 0.01981765, "INCLINATION": 99.2123, "RA_OF_ASC_NODE": 91.1194, "ARG_OF_PERICENTER": 56.8358, "MEAN_ANOMALY": 320.7568, "EPHEMERIS_TYPE": 0, "CLASSIFICATION_TYPE": "U", "NORAD_CAT_ID": 29858, "ELEMENT_SET_NO": 999, "REV_AT_EPOCH": 94593, "BSTAR": 0.00087588018, "MEAN_MOTION_DOT": 9.72e-06, "MEAN_MOTION_DDOT": 0}, "tle": {"line1": "1 29858U 99025FC  25349.57484307  .00000972  00000+0  87588-3 0  9994", "line2": "2 29858  99.2123  91.1194 0198176  56.8358 320.7568 13.77794218945932"}}, "geometry": {"type": "Point", "coordinates": [78.63899433499112, 54.866461375690264]}}, {"type": "Feature", "properties": {"norad_id": 29859, "name": "FENGYUN 1C DEB", "group": "fengyun-1c-debris", "lat": -72.78406127380372, "lon": -147.05836543345887, "alt_km": 956.6677785421016, "timestamp": "2025-12-16T10:53:45.741219+00:00", "meta": {"OBJECT_NAME": "FENGYUN 1C DEB", "OBJECT_ID": "1999-025FD", "EPOCH": "2025-12-15T12:33:00.195552", "MEAN_MOTION": 13.7405146, "ECCENTRICITY": 0.02947908, "INCLINATION": 98.3354, "RA_OF_ASC_NODE": 183.8897, "ARG_OF_PERICENTER": 205.4469, "MEAN_ANOMALY": 153.1918, "EPHEMERIS_TYPE": 0, "CLASSIFICATION_TYPE": "U", "NORAD_CAT_ID": 29859, "ELEMENT_SET_NO": 999, "REV_AT_EPOCH": 94018, "BSTAR": 0.0018187048, "MEAN_MOTION_DOT": 2.303e-05, "MEAN_MOTION_DDOT": 0}, "tle": {"line1": "1 29859U 99025FD  25349.52291893  .00002303  00000+0  18187-2 0  9994", "line2": "2 29859  98.3354 183.8897 0294790 205.4469 153.1918 13.74051460940183"}}, "geometry": {"type": "Point", "coordinates": [-147.05836543345887, -72.78406127380372]}}, {"type": "Feature", "properties": {"norad_id": 29860, "name": "FENGYUN 1C DEB", "group": "fengyun-1c-debris", "lat": 66.78174859583488, "lon": -135.2714516364345, "alt_km": 1085.9643216503155, "timestamp": "2025-12-16T10:53:45.741229+00:00", "meta": {"OBJECT_NAME": "FENGYUN 1C DEB", "OBJECT_ID": "1999-025FE", "EPOCH": "2025-12-15T14:10:52.776768", "MEAN_MOTION": 13.77544597, "ECCENTRICITY": 0.02210938, "INCLINATION": 98.618, "RA_OF_ASC_NODE": 23.2423, "ARG_OF_PERICENTER": 335.5398, "MEAN_ANOMALY": 176.3615, "EPHEMERIS_TYPE": 0, "CLASSIFICATION_TYPE": "U", "NORAD_CAT_ID": 29860, "ELEMENT_SET_NO": 999, "REV_AT_EPOCH": 94178, "BSTAR": 0.0019016472, "MEAN_MOTION_DOT": 2.23e-05, "MEAN_MOTION_DDOT": 0}, "tle": {"line1": "1 29860U 99025FE  25349.59088862  .00002230  00000+0  19016-2 0  9994", "line2": "2 29860  98.6180  23.2423 0221093 335.5398 176.3615 13.77544597941788"}}, "geometry": {"type": "Point", "coordinates": [-135.2714516364345, 66.78174859583488]}}, {"type": "Feature", "properties": {"norad_id": 29865, "name": "FENGYUN 1C DEB", "group": "fengyun-1c-debris", "lat": 10.839354284996675, "lon": 83.35718153231446, "alt_km": 559.0198270668425, "timestamp": "2025-12-16T10:53:45.741240+00:00", "meta": {"OBJECT_NAME": "FENGYUN 1C DEB", "OBJECT_ID": "1999-025FK", "EPOCH": "2025-12-15T18:14:25.531872", "MEAN_MOTION": 14.82630209, "ECCENTRICITY": 0.01164667, "INCLINATION": 98.9207, "RA_OF_ASC_NODE": 260.8602, "ARG_OF_PERICENTER": 131.8129, "MEAN_ANOMALY": 294.3313, "EPHEMERIS_TYPE": 0, "CLASSIFICATION_TYPE": "U", "NORAD_CAT_ID": 29865, "ELEMENT_SET_NO": 999, "REV_AT_EPOCH": 803, "BSTAR": 0.00034738712, "MEAN_MOTION_DOT": 3.078e-05, "MEAN_MOTION_DDOT": 0}, "tle": {"line1": "1 29865U 99025FK  25349.76001773  .00003078  00000+0  34739-3 0  9995", "line2": "2 29865  98.9207 260.8602 0116466 131.8129 294.3313 14.82630209  8031"}}, "geometry": {"type": "Point", "coordinates": [83.35718153231446, 10.839354284996675]}}, {"type": "Feature", "properties": {"norad_id": 29866, "name": "FENGYUN 1C DEB", "group": "fengyun-1c-debris", "lat": 49.89145987391602, "lon": -33.55719679352662, "alt_km": 796.2107287840709, "timestamp": "2025-12-16T10:53:45.741250+00:00", "meta": {"OBJECT_NAME": "FENGYUN 1C DEB", "OBJECT_ID": "1999-025FL", "EPOCH": "2025-12-15T21:49:26.417856", "MEAN_MOTION": 14.64225949, "ECCENTRICITY": 0.01945687, "INCLINATION": 98.0374, "RA_OF_ASC_NODE": 335.5678, "ARG_OF_PERICENTER": 204.8192, "MEAN_ANOMALY": 217.5219, "EPHEMERIS_TYPE": 0, "CLASSIFICATION_TYPE": "U", "NORAD_CAT_ID": 29866, "ELEMENT_SET_NO": 999, "REV_AT_EPOCH": 373, "BSTAR": 0.00020441783, "MEAN_MOTION_DOT": 1.36e-05, "MEAN_MOTION_DDOT": 0}, "tle": {"line1": "1 29866U 99025FL  25349.90933354  .00001360  00000+0  20442-3 0  9999", "line2": "2 29866  98.0374 335.5678 0194568 204.8192 217.5219 14.64225949  3736"}}, "geometry": {"type": "Point", "coordinates": [-33.55719679352662, 49.89145987391602]}}]}